[{"OBJECT_NAME":"NUSAT-50 (NANCY ROMAN)","OBJECT_ID":"2024-149AB","EPOCH":"2026-03-09T19:15:16.765632","MEAN_MOTION":15.29713355,"ECCENTRICITY":0.00025229,"INCLINATION":97.3817,"RA_OF_ASC_NODE":150.7693,"ARG_OF_PERICENTER":238.0469,"MEAN_ANOMALY":122.0527,"EPHEMERIS_TYPE":0,"CLASSIFICATION_TYPE":"U","NORAD_CAT_ID":60493,"ELEMENT_SET_NO":999,"REV_AT_EPOCH":8693,"BSTAR":0.0004225155,"MEAN_MOTION_DOT":0.00012094,"MEAN_MOTION_DDOT":0},{"OBJECT_NAME":"STARLINK-32879","OBJECT_ID":"2025-029K","EPOCH":"2026-03-09T16:22:31.855296","MEAN_MOTION":15.30193249,"ECCENTRICITY":0.00010342,"INCLINATION":53.1572,"RA_OF_ASC_NODE":232.6916,"ARG_OF_PERICENTER":93.9856,"MEAN_ANOMALY":266.1263,"EPHEMERIS_TYPE":0,"CLASSIFICATION_TYPE":"U","NORAD_CAT_ID":62957,"ELEMENT_SET_NO":999,"REV_AT_EPOCH":6131,"BSTAR":0.00041525708,"MEAN_MOTION_DOT":0.00011957,"MEAN_MOTION_DDOT":0}]
