NUSAT-50 (NANCY ROMAN)  
1 60493U 24149AB  26068.80227738  .00012094  00000+0  42252-3 0  9994
2 60493  97.3817 150.7693 0002523 238.0469 122.0527 15.29713355 86930
STARLINK-32879          
1 62957U 25029K   26068.68231314  .00011957  00000+0  41526-3 0  9990
2 62957  53.1572 232.6916 0001034  93.9856 266.1263 15.30193249 61315
